[{"OBJECT_NAME":"YAOGAN-36 04A","OBJECT_ID":"2022-171A","EPOCH":"2026-03-09T13:33:55.536768","MEAN_MOTION":15.19645021,"ECCENTRICITY":0.0007143,"INCLINATION":34.9894,"RA_OF_ASC_NODE":125.487,"ARG_OF_PERICENTER":123.655,"MEAN_ANOMALY":236.4846,"EPHEMERIS_TYPE":0,"CLASSIFICATION_TYPE":"U","NORAD_CAT_ID":54746,"ELEMENT_SET_NO":999,"REV_AT_EPOCH":17995,"BSTAR":0.00040159,"MEAN_MOTION_DOT":8.745e-5,"MEAN_MOTION_DDOT":0},{"OBJECT_NAME":"STARLINK-35892","OBJECT_ID":"2025-299P","EPOCH":"2026-03-09T22:00:01.999584","MEAN_MOTION":15.36716354,"ECCENTRICITY":0.00012105,"INCLINATION":43.0012,"RA_OF_ASC_NODE":167.5797,"ARG_OF_PERICENTER":270.1042,"MEAN_ANOMALY":50.5728,"EPHEMERIS_TYPE":0,"CLASSIFICATION_TYPE":"U","NORAD_CAT_ID":67115,"ELEMENT_SET_NO":999,"REV_AT_EPOCH":569,"BSTAR":-0.062767387,"MEAN_MOTION_DOT":-0.02076305,"MEAN_MOTION_DDOT":0}]
